{"type": "FeatureCollection", "features": [{"type": "Feature", "properties": {"norad_id": 28890, "name": "BEIJING 1", "group": "dmc", "lat": -45.37828169546338, "lon": 112.25102750385827, "alt_km": 697.2045450980986, "timestamp": "2025-12-02T07:10:08.776063+00:00", "meta": {"OBJECT_NAME": "BEIJING 1", "OBJECT_ID": "2005-043A", "EPOCH": "2025-12-01T21:31:59.400192", "MEAN_MOTION": 14.63348704, "ECCENTRICITY": 0.0014748, "INCLINATION": 98.2649, "RA_OF_ASC_NODE": 103.379, "ARG_OF_PERICENTER": 174.3625, "MEAN_ANOMALY": 185.7745, "EPHEMERIS_TYPE": 0, "CLASSIFICATION_TYPE": "U", "NORAD_CAT_ID": 28890, "ELEMENT_SET_NO": 999, "REV_AT_EPOCH": 7179, "BSTAR": 9.9813e-05, "MEAN_MOTION_DOT": 4.67e-06, "MEAN_MOTION_DDOT": 0}, "tle": {"line1": "1 28890U 05043A   25335.89721528  .00000467  00000+0  99813-4 0  9999", "line2": "2 28890  98.2649 103.3790 0014748 174.3625 185.7745 14.63348704 71793"}}, "geometry": {"type": "Point", "coordinates": [112.25102750385827, -45.37828169546338]}}, {"type": "Feature", "properties": {"norad_id": 33320, "name": "HUANJING 1A (HJ-1A)", "group": "dmc", "lat": -48.85799340572521, "lon": -26.112114244052734, "alt_km": 632.0017597838005, "timestamp": "2025-12-02T07:10:08.776088+00:00", "meta": {"OBJECT_NAME": "HUANJING 1A (HJ-1A)", "OBJECT_ID": "2008-041A", "EPOCH": "2025-12-01T21:40:40.367136", "MEAN_MOTION": 14.83337268, "ECCENTRICITY": 0.0020686, "INCLINATION": 97.6533, "RA_OF_ASC_NODE": 324.6552, "ARG_OF_PERICENTER": 67.8721, "MEAN_ANOMALY": 292.4687, "EPHEMERIS_TYPE": 0, "CLASSIFICATION_TYPE": "U", "NORAD_CAT_ID": 33320, "ELEMENT_SET_NO": 999, "REV_AT_EPOCH": 92915, "BSTAR": 0.00020736, "MEAN_MOTION_DOT": 1.654e-05, "MEAN_MOTION_DDOT": 0}, "tle": {"line1": "1 33320U 08041A   25335.90324499  .00001654  00000+0  20736-3 0  9998", "line2": "2 33320  97.6533 324.6552 0020686  67.8721 292.4687 14.83337268929155"}}, "geometry": {"type": "Point", "coordinates": [-26.112114244052734, -48.85799340572521]}}, {"type": "Feature", "properties": {"norad_id": 33321, "name": "HUANJING 1B (HJ-1B)", "group": "dmc", "lat": -13.72932547831753, "lon": 146.87903248738186, "alt_km": 622.7897024173499, "timestamp": "2025-12-02T07:10:08.776103+00:00", "meta": {"OBJECT_NAME": "HUANJING 1B (HJ-1B)", "OBJECT_ID": "2008-041B", "EPOCH": "2025-12-01T20:35:03.789600", "MEAN_MOTION": 14.82774654, "ECCENTRICITY": 0.0038115, "INCLINATION": 97.6395, "RA_OF_ASC_NODE": 328.3368, "ARG_OF_PERICENTER": 110.1621, "MEAN_ANOMALY": 250.37, "EPHEMERIS_TYPE": 0, "CLASSIFICATION_TYPE": "U", "NORAD_CAT_ID": 33321, "ELEMENT_SET_NO": 999, "REV_AT_EPOCH": 92916, "BSTAR": 0.00016761, "MEAN_MOTION_DOT": 1.32e-05, "MEAN_MOTION_DDOT": 0}, "tle": {"line1": "1 33321U 08041B   25335.85768275  .00001320  00000+0  16761-3 0  9990", "line2": "2 33321  97.6395 328.3368 0038115 110.1621 250.3700 14.82774654929168"}}, "geometry": {"type": "Point", "coordinates": [146.87903248738186, -13.72932547831753]}}, {"type": "Feature", "properties": {"norad_id": 33446, "name": "YAOGAN-4", "group": "dmc", "lat": 68.31182192366244, "lon": 106.98116322144675, "alt_km": 618.2164227241337, "timestamp": "2025-12-02T07:10:08.776115+00:00", "meta": {"OBJECT_NAME": "YAOGAN-4", "OBJECT_ID": "2008-061A", "EPOCH": "2025-12-01T17:42:59.550336", "MEAN_MOTION": 14.8262448, "ECCENTRICITY": 0.0014543, "INCLINATION": 97.9166, "RA_OF_ASC_NODE": 265.9464, "ARG_OF_PERICENTER": 359.9883, "MEAN_ANOMALY": 0.1328, "EPHEMERIS_TYPE": 0, "CLASSIFICATION_TYPE": "U", "NORAD_CAT_ID": 33446, "ELEMENT_SET_NO": 999, "REV_AT_EPOCH": 91640, "BSTAR": 0.00022043, "MEAN_MOTION_DOT": 1.725e-05, "MEAN_MOTION_DDOT": 0}, "tle": {"line1": "1 33446U 08061A   25335.73818924  .00001725  00000+0  22043-3 0  9993", "line2": "2 33446  97.9166 265.9464 0014543 359.9883   0.1328 14.82624480916401"}}, "geometry": {"type": "Point", "coordinates": [106.98116322144675, 68.31182192366244]}}, {"type": "Feature", "properties": {"norad_id": 35681, "name": "DEIMOS-1", "group": "dmc", "lat": 10.07238464340272, "lon": -41.231917015500066, "alt_km": 646.4229807108659, "timestamp": "2025-12-02T07:10:08.776126+00:00", "meta": {"OBJECT_NAME": "DEIMOS-1", "OBJECT_ID": "2009-041A", "EPOCH": "2025-12-01T20:37:59.405376", "MEAN_MOTION": 14.74924599, "ECCENTRICITY": 0.0002661, "INCLINATION": 97.7145, "RA_OF_ASC_NODE": 136.97, "ARG_OF_PERICENTER": 99.2344, "MEAN_ANOMALY": 260.9167, "EPHEMERIS_TYPE": 0, "CLASSIFICATION_TYPE": "U", "NORAD_CAT_ID": 35681, "ELEMENT_SET_NO": 999, "REV_AT_EPOCH": 87779, "BSTAR": 0.00012651, "MEAN_MOTION_DOT": 8.02e-06, "MEAN_MOTION_DDOT": 0}, "tle": {"line1": "1 35681U 09041A   25335.85971534  .00000802  00000+0  12651-3 0  9994", "line2": "2 35681  97.7145 136.9700 0002661  99.2344 260.9167 14.74924599877793"}}, "geometry": {"type": "Point", "coordinates": [-41.231917015500066, 10.07238464340272]}}, {"type": "Feature", "properties": {"norad_id": 35683, "name": "UK-DMC 2", "group": "dmc", "lat": 19.957284879174498, "lon": -65.62917900122677, "alt_km": 642.9321165882466, "timestamp": "2025-12-02T07:10:08.776137+00:00", "meta": {"OBJECT_NAME": "UK-DMC 2", "OBJECT_ID": "2009-041C", "EPOCH": "2025-12-01T20:40:58.281024", "MEAN_MOTION": 14.75581404, "ECCENTRICITY": 0.0001263, "INCLINATION": 97.8561, "RA_OF_ASC_NODE": 111.0725, "ARG_OF_PERICENTER": 103.0845, "MEAN_ANOMALY": 257.0505, "EPHEMERIS_TYPE": 0, "CLASSIFICATION_TYPE": "U", "NORAD_CAT_ID": 35683, "ELEMENT_SET_NO": 999, "REV_AT_EPOCH": 87746, "BSTAR": 0.00017902, "MEAN_MOTION_DOT": 1.171e-05, "MEAN_MOTION_DDOT": 0}, "tle": {"line1": "1 35683U 09041C   25335.86178566  .00001171  00000+0  17902-3 0  9995", "line2": "2 35683  97.8561 111.0725 0001263 103.0845 257.0505 14.75581404877468"}}, "geometry": {"type": "Point", "coordinates": [-65.62917900122677, 19.957284879174498]}}, {"type": "Feature", "properties": {"norad_id": 40715, "name": "DMC3-FM1", "group": "dmc", "lat": -20.088211870599594, "lon": 21.045652723634777, "alt_km": 621.0695336298932, "timestamp": "2025-12-02T07:10:08.776147+00:00", "meta": {"OBJECT_NAME": "DMC3-FM1", "OBJECT_ID": "2015-032A", "EPOCH": "2025-12-01T20:34:13.367424", "MEAN_MOTION": 14.85408441, "ECCENTRICITY": 0.0005455, "INCLINATION": 97.6706, "RA_OF_ASC_NODE": 203.4454, "ARG_OF_PERICENTER": 359.4988, "MEAN_ANOMALY": 0.6221, "EPHEMERIS_TYPE": 0, "CLASSIFICATION_TYPE": "U", "NORAD_CAT_ID": 40715, "ELEMENT_SET_NO": 999, "REV_AT_EPOCH": 56061, "BSTAR": 0.00010899, "MEAN_MOTION_DOT": 8.87e-06, "MEAN_MOTION_DDOT": 0}, "tle": {"line1": "1 40715U 15032A   25335.85709916  .00000887  00000+0  10899-3 0  9993", "line2": "2 40715  97.6706 203.4454 0005455 359.4988   0.6221 14.85408441560619"}}, "geometry": {"type": "Point", "coordinates": [21.045652723634777, -20.088211870599594]}}, {"type": "Feature", "properties": {"norad_id": 40716, "name": "DMC3-FM2", "group": "dmc", "lat": 77.37490507292532, "lon": 168.2859966236928, "alt_km": 604.1429735176534, "timestamp": "2025-12-02T07:10:08.776157+00:00", "meta": {"OBJECT_NAME": "DMC3-FM2", "OBJECT_ID": "2015-032B", "EPOCH": "2025-12-01T21:06:38.099232", "MEAN_MOTION": 14.85409644, "ECCENTRICITY": 0.0006101, "INCLINATION": 97.6757, "RA_OF_ASC_NODE": 204.9032, "ARG_OF_PERICENTER": 3.419, "MEAN_ANOMALY": 356.7066, "EPHEMERIS_TYPE": 0, "CLASSIFICATION_TYPE": "U", "NORAD_CAT_ID": 40716, "ELEMENT_SET_NO": 999, "REV_AT_EPOCH": 56061, "BSTAR": 0.00011474, "MEAN_MOTION_DOT": 9.37e-06, "MEAN_MOTION_DDOT": 0}, "tle": {"line1": "1 40716U 15032B   25335.87960763  .00000937  00000+0  11474-3 0  9991", "line2": "2 40716  97.6757 204.9032 0006101   3.4190 356.7066 14.85409644560612"}}, "geometry": {"type": "Point", "coordinates": [168.2859966236928, 77.37490507292532]}}, {"type": "Feature", "properties": {"norad_id": 40717, "name": "DMC3-FM3", "group": "dmc", "lat": -35.111484400112374, "lon": -147.62139808390418, "alt_km": 615.6698728346792, "timestamp": "2025-12-02T07:10:08.776168+00:00", "meta": {"OBJECT_NAME": "DMC3-FM3", "OBJECT_ID": "2015-032C", "EPOCH": "2025-12-01T21:37:40.990368", "MEAN_MOTION": 14.85404196, "ECCENTRICITY": 0.0005456, "INCLINATION": 97.6812, "RA_OF_ASC_NODE": 206.5499, "ARG_OF_PERICENTER": 5.427, "MEAN_ANOMALY": 354.7003, "EPHEMERIS_TYPE": 0, "CLASSIFICATION_TYPE": "U", "NORAD_CAT_ID": 40717, "ELEMENT_SET_NO": 999, "REV_AT_EPOCH": 56062, "BSTAR": 9.378e-05, "MEAN_MOTION_DOT": 7.56e-06, "MEAN_MOTION_DDOT": 0}, "tle": {"line1": "1 40717U 15032C   25335.90116887  .00000756  00000+0  93780-4 0  9996", "line2": "2 40717  97.6812 206.5499 0005456   5.4270 354.7003 14.85404196560620"}}, "geometry": {"type": "Point", "coordinates": [-147.62139808390418, -35.111484400112374]}}]}